{
  "norad_id": 67923,
  "name": "STARLINK-36406",
  "history": [
    {
      "epoch": "2026-03-28T22:00:01.999584Z",
      "apogee_km": 468.3567939475806,
      "perigee_km": 466.4304616289219,
      "latitude_deg": -16.022343046139888,
      "longitude_deg": 178.47782587969218,
      "height_km": 470.184486046964,
      "semi_major_axis_km": 6845.530627788251,
      "eccentricity": 0.0001407,
      "inclination_deg": 43.0001,
      "raan_deg": 136.9834,
      "arg_perigee_deg": 268.3618,
      "mean_anomaly_deg": 295.3087,
      "mean_motion_rev_day": 15.32823271
    },
    {
      "epoch": "2026-03-29T04:00:01.999584Z",
      "apogee_km": 472.22421646780367,
      "perigee_km": 469.97492717761725,
      "latitude_deg": 23.55155516275857,
      "longitude_deg": 41.28001927303291,
      "height_km": 471.7102543687954,
      "semi_major_axis_km": 6849.23657182271,
      "eccentricity": 0.0001642,
      "inclination_deg": 43.0003,
      "raan_deg": 135.5646,
      "arg_perigee_deg": 289.4504,
      "mean_anomaly_deg": 214.8301,
      "mean_motion_rev_day": 15.31579383
    }
  ]
}